{"type": "FeatureCollection", "features": [ {"type": "Feature", "properties": {"norad_id": 30035, "name": "FENGYUN 1C DEB", "group": "fengyun-1c-debris", "lat": 13.224779897930715, "lon": -103.07888737094724, "alt_km": 721.4333125813064, "timestamp": "2025-12-10T11:33:53.658656+00:00", "meta": {"OBJECT_NAME": "FENGYUN 1C DEB", "OBJECT_ID": "1999-025NL", "EPOCH": "2025-12-09T17:15:43.130880", "MEAN_MOTION": 14.36972572, "ECCENTRICITY": 0.0115632, "INCLINATION": 99.2706, "RA_OF_ASC_NODE": 258.2999, "ARG_OF_PERICENTER": 70.6632, "MEAN_ANOMALY": 321.0317, "EPHEMERIS_TYPE": 0, "CLASSIFICATION_TYPE": "U", "NORAD_CAT_ID": 30035, "ELEMENT_SET_NO": 999, "REV_AT_EPOCH": 99080, "BSTAR": 0.00013064, "MEAN_MOTION_DOT": 3.65e-06, "MEAN_MOTION_DDOT": 0}, "tle": {"line1": "1 30035U 99025NL  25343.71924920  .00000365  00000+0  13064-3 0  9997", "line2": "2 30035  99.2706 258.2999 0115632  70.6632 321.0317 14.36972572990801"}}, "geometry": {"type": "Point", "coordinates": [-103.07888737094724, 13.224779897930715]}}, {"type": "Feature", "properties": {"norad_id": 30036, "name": "FENGYUN 1C DEB", "group": "fengyun-1c-debris", "lat": 31.134103673719633, "lon": 6.606861216991099, "alt_km": 871.4017516767717, "timestamp": "2025-12-10T11:33:53.658666+00:00", "meta": {"OBJECT_NAME": "FENGYUN 1C DEB", "OBJECT_ID": "1999-025NM", "EPOCH": "2025-12-10T01:45:50.088960", "MEAN_MOTION": 14.46165269, "ECCENTRICITY": 0.0189839, "INCLINATION": 98.2528, "RA_OF_ASC_NODE": 11.2387, "ARG_OF_PERICENTER": 215.7591, "MEAN_ANOMALY": 210.8857, "EPHEMERIS_TYPE": 0, "CLASSIFICATION_TYPE": "U", "NORAD_CAT_ID": 30036, "ELEMENT_SET_NO": 999, "REV_AT_EPOCH": 99138, "BSTAR": 0.00060713, "MEAN_MOTION_DOT": 2.663e-05, "MEAN_MOTION_DDOT": 0}, "tle": {"line1": "1 30036U 99025NM  25344.07349640  .00002663  00000+0  60713-3 0  9994", "line2": "2 30036  98.2528  11.2387 0189839 215.7591 210.8857 14.46165269991383"}}, "geometry": {"type": "Point", "coordinates": [6.606861216991099, 31.134103673719633]}}, {"type": "Feature", "properties": {"norad_id": 30037, "name": "FENGYUN 1C DEB", "group": "fengyun-1c-debris", "lat": 14.135383009320106, "lon": 142.39474380863155, "alt_km": 806.7727548205039, "timestamp": "2025-12-10T11:33:53.658676+00:00", "meta": {"OBJECT_NAME": "FENGYUN 1C DEB", "OBJECT_ID": "1999-025NN", "EPOCH": "2025-12-09T10:22:55.253280", "MEAN_MOTION": 14.34111274, "ECCENTRICITY": 0.01745574, "INCLINATION": 98.3831, "RA_OF_ASC_NODE": 319.2486, "ARG_OF_PERICENTER": 64.8781, "MEAN_ANOMALY": 84.6299, "EPHEMERIS_TYPE": 0, "CLASSIFICATION_TYPE": "U", "NORAD_CAT_ID": 30037, "ELEMENT_SET_NO": 999, "REV_AT_EPOCH": 98740, "BSTAR": 0.00035366107, "MEAN_MOTION_DOT": 1.128e-05, "MEAN_MOTION_DDOT": 0}, "tle": {"line1": "1 30037U 99025NN  25343.43258395  .00001128  00000+0  35366-3 0  9991", "line2": "2 30037  98.3831 319.2486 0174557  64.8781  84.6299 14.34111274987407"}}, "geometry": {"type": "Point", "coordinates": [142.39474380863155, 14.135383009320106]}}, {"type": "Feature", "properties": {"norad_id": 30038, "name": "FENGYUN 1C DEB", "group": "fengyun-1c-debris", "lat": 24.932208296719132, "lon": 156.08585264603227, "alt_km": 627.7896348398135, "timestamp": "2025-12-10T11:33:53.658686+00:00", "meta": {"OBJECT_NAME": "FENGYUN 1C DEB", "OBJECT_ID": "1999-025NP", "EPOCH": "2025-12-09T16:55:20.326368", "MEAN_MOTION": 14.39285393, "ECCENTRICITY": 0.0257974, "INCLINATION": 98.3681, "RA_OF_ASC_NODE": 331.4032, "ARG_OF_PERICENTER": 111.8869, "MEAN_ANOMALY": 338.253, "EPHEMERIS_TYPE": 0, "CLASSIFICATION_TYPE": "U", "NORAD_CAT_ID": 30038, "ELEMENT_SET_NO": 999, "REV_AT_EPOCH": 98847, "BSTAR": 0.00034481, "MEAN_MOTION_DOT": 1.532e-05, "MEAN_MOTION_DDOT": 0}, "tle": {"line1": "1 30038U 99025NP  25343.70509637  .00001532  00000+0  34481-3 0  9996", "line2": "2 30038  98.3681 331.4032 0257974 111.8869 338.2530 14.39285393988472"}}, "geometry": {"type": "Point", "coordinates": [156.08585264603227, 24.932208296719132]}}, {"type": "Feature", "properties": {"norad_id": 30040, "name": "FENGYUN 1C DEB", "group": "fengyun-1c-debris", "lat": -61.783323979104594, "lon": 16.61453286054642, "alt_km": 753.9701502785792, "timestamp": "2025-12-10T11:33:53.658696+00:00", "meta": {"OBJECT_NAME": "FENGYUN 1C DEB", "OBJECT_ID": "1999-025NR", "EPOCH": "2025-12-09T22:42:09.418176", "MEAN_MOTION": 14.37073265, "ECCENTRICITY": 0.0032389, "INCLINATION": 98.2342, "RA_OF_ASC_NODE": 0.445, "ARG_OF_PERICENTER": 321.5771, "MEAN_ANOMALY": 84.7015, "EPHEMERIS_TYPE": 0, "CLASSIFICATION_TYPE": "U", "NORAD_CAT_ID": 30040, "ELEMENT_SET_NO": 999, "REV_AT_EPOCH": 97888, "BSTAR": 0.0023927, "MEAN_MOTION_DOT": 7.111e-05, "MEAN_MOTION_DDOT": 0}, "tle": {"line1": "1 30040U 99025NR  25343.94594234  .00007111  00000+0  23927-2 0  9993", "line2": "2 30040  98.2342   0.4450 0032389 321.5771  84.7015 14.37073265978884"}}, "geometry": {"type": "Point", "coordinates": [16.61453286054642, -61.783323979104594]}}, {"type": "Feature", "properties": {"norad_id": 30041, "name": "FENGYUN 1C DEB", "group": "fengyun-1c-debris", "lat": 71.3326634503781, "lon": 61.25499760426587, "alt_km": 863.1733987724174, "timestamp": "2025-12-10T11:33:53.658706+00:00", "meta": {"OBJECT_NAME": "FENGYUN 1C DEB", "OBJECT_ID": "1999-025NS", "EPOCH": "2025-12-09T18:59:31.947936", "MEAN_MOTION": 14.13177697, "ECCENTRICITY": 0.0034709, "INCLINATION": 99.467, "RA_OF_ASC_NODE": 90.1212, "ARG_OF_PERICENTER": 225.3238, "MEAN_ANOMALY": 297.6417, "EPHEMERIS_TYPE": 0, "CLASSIFICATION_TYPE": "U", "NORAD_CAT_ID": 30041, "ELEMENT_SET_NO": 999, "REV_AT_EPOCH": 97245, "BSTAR": 0.00082137, "MEAN_MOTION_DOT": 1.496e-05, "MEAN_MOTION_DDOT": 0}, "tle": {"line1": "1 30041U 99025NS  25343.79134199  .00001496  00000+0  82137-3 0  9996", "line2": "2 30041  99.4670  90.1212 0034709 225.3238 297.6417 14.13177697972457"}}, "geometry": {"type": "Point", "coordinates": [61.25499760426587, 71.3326634503781]}}, {"type": "Feature", "properties": {"norad_id": 30043, "name": "FENGYUN 1C DEB", "group": "fengyun-1c-debris", "lat": 0.41996829490245263, "lon": 82.41669460412024, "alt_km": 962.7213370274067, "timestamp": "2025-12-10T11:33:53.658716+00:00", "meta": {"OBJECT_NAME": "FENGYUN 1C DEB", "OBJECT_ID": "1999-025NU", "EPOCH": "2025-12-09T05:11:52.575072", "MEAN_MOTION": 14.23531346, "ECCENTRICITY": 0.0283813, "INCLINATION": 98.6272, "RA_OF_ASC_NODE": 81.2379, "ARG_OF_PERICENTER": 141.1908, "MEAN_ANOMALY": 221.0033, "EPHEMERIS_TYPE": 0, "CLASSIFICATION_TYPE": "U", "NORAD_CAT_ID": 30043, "ELEMENT_SET_NO": 999, "REV_AT_EPOCH": 97295, "BSTAR": 0.0016088, "MEAN_MOTION_DOT": 5.508e-05, "MEAN_MOTION_DDOT": 0}, "tle": {"line1": "1 30043U 99025NU  25343.21658073  .00005508  00000+0  16088-2 0  9996", "line2": "2 30043  98.6272  81.2379 0283813 141.1908 221.0033 14.23531346972950"}}, "geometry": {"type": "Point", "coordinates": [82.41669460412024, 0.41996829490245263]}}, {"type": "Feature", "properties": {"norad_id": 30044, "name": "FENGYUN 1C DEB", "group": "fengyun-1c-debris", "lat": 25.780968934477055, "lon": -99.16905774816087, "alt_km": 770.4925614667627, "timestamp": "2025-12-10T11:33:53.658726+00:00", "meta": {"OBJECT_NAME": "FENGYUN 1C DEB", "OBJECT_ID": "1999-025NV", "EPOCH": "2025-12-09T23:51:17.985888", "MEAN_MOTION": 14.50597113, "ECCENTRICITY": 0.0079255, "INCLINATION": 98.2112, "RA_OF_ASC_NODE": 264.3543, "ARG_OF_PERICENTER": 175.8209, "MEAN_ANOMALY": 184.3665, "EPHEMERIS_TYPE": 0, "CLASSIFICATION_TYPE": "U", "NORAD_CAT_ID": 30044, "ELEMENT_SET_NO": 999, "REV_AT_EPOCH": 97999, "BSTAR": 0.0025205, "MEAN_MOTION_DOT": 0.00010259, "MEAN_MOTION_DDOT": 0}, "tle": {"line1": "1 30044U 99025NV  25343.99395817  .00010259  00000+0  25205-2 0  9996", "line2": "2 30044  98.2112 264.3543 0079255 175.8209 184.3665 14.50597113979995"}}, "geometry": {"type": "Point", "coordinates": [-99.16905774816087, 25.780968934477055]}}, {"type": "Feature", "properties": {"norad_id": 30045, "name": "FENGYUN 1C DEB", "group": "fengyun-1c-debris", "lat": 62.65442593996057, "lon": 1.740703287129028, "alt_km": 774.7780202599724, "timestamp": "2025-12-10T11:33:53.658737+00:00", "meta": {"OBJECT_NAME": "FENGYUN 1C DEB", "OBJECT_ID": "1999-025NW", "EPOCH": "2025-12-10T01:25:04.969920", "MEAN_MOTION": 14.21564555, "ECCENTRICITY": 0.0094948, "INCLINATION": 99.1786, "RA_OF_ASC_NODE": 19.5201, "ARG_OF_PERICENTER": 120.9196, "MEAN_ANOMALY": 301.6886, "EPHEMERIS_TYPE": 0, "CLASSIFICATION_TYPE": "U", "NORAD_CAT_ID": 30045, "ELEMENT_SET_NO": 999, "REV_AT_EPOCH": 96650, "BSTAR": 0.0026669, "MEAN_MOTION_DOT": 6.075e-05, "MEAN_MOTION_DDOT": 0}, "tle": {"line1": "1 30045U 99025NW  25344.05908530  .00006075  00000+0  26669-2 0  9993", "line2": "2 30045  99.1786  19.5201 0094948 120.9196 301.6886 14.21564555966500"}}, "geometry": {"type": "Point", "coordinates": [1.740703287129028, 62.65442593996057]}}, {"type": "Feature", "properties": {"norad_id": 30047, "name": "FENGYUN 1C DEB", "group": "fengyun-1c-debris", "lat": -41.57950589800654, "lon": -47.623774622595775, "alt_km": 944.9668133532732, "timestamp": "2025-12-10T11:33:53.658747+00:00", "meta": {"OBJECT_NAME": "FENGYUN 1C DEB", "OBJECT_ID": "1999-025NY", "EPOCH": "2025-12-10T04:28:00.933024", "MEAN_MOTION": 13.94347884, "ECCENTRICITY": 0.0125625, "INCLINATION": 99.9192, "RA_OF_ASC_NODE": 140.9898, "ARG_OF_PERICENTER": 329.6154, "MEAN_ANOMALY": 210.2609, "EPHEMERIS_TYPE": 0, "CLASSIFICATION_TYPE": "U", "NORAD_CAT_ID": 30047, "ELEMENT_SET_NO": 999, "REV_AT_EPOCH": 95880, "BSTAR": 0.00093443, "MEAN_MOTION_DOT": 1.276e-05, "MEAN_MOTION_DDOT": 0}, "tle": {"line1": "1 30047U 99025NY  25344.18612191  .00001276  00000+0  93443-3 0  9997", "line2": "2 30047  99.9192 140.9898 0125625 329.6154 210.2609 13.94347884958806"}}, "geometry": {"type": "Point", "coordinates": [-47.623774622595775, -41.57950589800654]}}]}